[
    {
        "Altitude(m)": 607895.841243762,
        "Argument of Periapsis(deg)": 0.0,
        "Eccentricity": 0.0,
        "Inclination(deg)": 60.0,
        "Latitude(deg)": 40.998404217535146,
        "Longitude(deg)": 40.088573360903766,
        "Mean Anomaly(deg)": -229.09090000000006,
        "RAAN(deg)": 350.0,
        "Satellite Name": "Test1 1548",
        "Satellite Number": 1548,
        "Semi-Major Axis(m)": 6980739.136638005,
        "Time(s)": 0
    },
    {
        "Altitude(m)": 607795.1542947873,
        "Argument of Periapsis(deg)": 0.00010418945913296404,
        "Eccentricity": 0.0,
        "Inclination(deg)": 60.0,
        "Latitude(deg)": 40.5307292056181,
        "Longitude(deg)": 40.58516885643096,
        "Mean Anomaly(deg)": -228.4707938545382,
        "RAAN(deg)": 349.99957995086027,
        "Satellite Name": "Test1 1548",
        "Satellite Number": 1548,
        "Semi-Major Axis(m)": 6980739.136638005,
        "Time(s)": 10
    },
    {
        "Altitude(m)": 607694.6428818369,
        "Argument of Periapsis(deg)": 0.0002083789182659281,
        "Eccentricity": 0.0,
        "Inclination(deg)": 60.0,
        "Latitude(deg)": 40.06054422727426,
        "Longitude(deg)": 41.07432345551094,
        "Mean Anomaly(deg)": -227.85068770907634,
        "RAAN(deg)": 349.9991599017205,
        "Satellite Name": "Test1 1548",
        "Satellite Number": 1548,
        "Semi-Major Axis(m)": 6980739.136638005,
        "Time(s)": 20
    },
    {
        "Altitude(m)": 607594.3707035551,
        "Argument of Periapsis(deg)": 0.00031256837739889213,
        "Eccentricity": 0.0,
        "Inclination(deg)": 60.0,
        "Latitude(deg)": 39.587922856654714,
        "Longitude(deg)": 41.556222764166066,
        "Mean Anomaly(deg)": -227.23058156361452,
        "RAAN(deg)": 349.9987398525808,
        "Satellite Name": "Test1 1548",
        "Satellite Number": 1548,
        "Semi-Major Axis(m)": 6980739.136638005,
        "Time(s)": 30
    },
    {
        "Altitude(m)": 607494.4015589326,
        "Argument of Periapsis(deg)": 0.0004167578365318562,
        "Eccentricity": 0.0,
        "Inclination(deg)": 60.0,
        "Latitude(deg)": 39.11293642774133,
        "Longitude(deg)": 42.03104934852595,
        "Mean Anomaly(deg)": -226.61047541815267,
        "RAAN(deg)": 349.998319803441,
        "Satellite Name": "Test1 1548",
        "Satellite Number": 1548,
        "Semi-Major Axis(m)": 6980739.136638005,
        "Time(s)": 40
    },
    {
        "Altitude(m)": 607394.7993154293,
        "Argument of Periapsis(deg)": 0.0005209472956648203,
        "Eccentricity": 0.0,
        "Inclination(deg)": 60.0,
        "Latitude(deg)": 38.63565410770578,
        "Longitude(deg)": 42.49898171437707,
        "Mean Anomaly(deg)": -225.99036927269083,
        "RAAN(deg)": 349.9978997543013,
        "Satellite Name": "Test1 1548",
        "Satellite Number": 1548,
        "Semi-Major Axis(m)": 6980739.136638005,
        "Time(s)": 50
    },
    {
        "Altitude(m)": 607295.6278769698,
        "Argument of Periapsis(deg)": 0.0006251367547977843,
        "Eccentricity": 0.0,
        "Inclination(deg)": 60.0,
        "Latitude(deg)": 38.15614296873064,
        "Longitude(deg)": 42.96019481040495,
        "Mean Anomaly(deg)": -225.37026312722898,
        "RAAN(deg)": 349.99747970516154,
        "Satellite Name": "Test1 1548",
        "Satellite Number": 1548,
        "Semi-Major Axis(m)": 6980739.136638005,
        "Time(s)": 60
    },
    {
        "Altitude(m)": 607196.9511518719,
        "Argument of Periapsis(deg)": 0.0007293262139307483,
        "Eccentricity": 0.0,
        "Inclination(deg)": 60.0,
        "Latitude(deg)": 37.674468058223354,
        "Longitude(deg)": 43.41486054112085,
        "Mean Anomaly(deg)": -224.7501569817672,
        "RAAN(deg)": 349.9970596560218,
        "Satellite Name": "Test1 1548",
        "Satellite Number": 1548,
        "Semi-Major Axis(m)": 6980739.136638005,
        "Time(s)": 70
    },
    {
        "Altitude(m)": 607098.8330207347,
        "Argument of Periapsis(deg)": 0.0008335156730637124,
        "Eccentricity": 0.0,
        "Inclination(deg)": 60.0,
        "Latitude(deg)": 37.190692467366894,
        "Longitude(deg)": 43.86314677555338,
        "Mean Anomaly(deg)": -224.13005083630534,
        "RAAN(deg)": 349.99663960688207,
        "Satellite Name": "Test1 1548",
        "Satellite Number": 1548,
        "Semi-Major Axis(m)": 6980739.136638005,
        "Time(s)": 80
    },
    {
        "Altitude(m)": 607001.3373042797,
        "Argument of Periapsis(deg)": 0.0009377051321966765,
        "Eccentricity": 0.0,
        "Inclination(deg)": 60.0,
        "Latitude(deg)": 36.70487739797325,
        "Longitude(deg)": 44.30521787649159,
        "Mean Anomaly(deg)": -223.50994469084347,
        "RAAN(deg)": 349.99621955774234,
        "Satellite Name": "Test1 1548",
        "Satellite Number": 1548,
        "Semi-Major Axis(m)": 6980739.136638005,
        "Time(s)": 90
    },
    {
        "Altitude(m)": 606904.5277311578,
        "Argument of Periapsis(deg)": 0.0010418945913296407,
        "Eccentricity": 0.0,
        "Inclination(deg)": 60.0,
        "Latitude(deg)": 36.21708222760859,
        "Longitude(deg)": 44.74123523652367,
        "Mean Anomaly(deg)": -222.88983854538174,
        "RAAN(deg)": 349.99579950860254,
        "Satellite Name": "Test1 1548",
        "Satellite Number": 1548,
        "Semi-Major Axis(m)": 6980739.136638005,
        "Time(s)": 100
    },
    {
        "Altitude(m)": 606808.4679057646,
        "Argument of Periapsis(deg)": 0.0011460840504626045,
        "Eccentricity": 0.0,
        "Inclination(deg)": 60.0,
        "Latitude(deg)": 35.72736457297119,
        "Longitude(deg)": 45.171356307186514,
        "Mean Anomaly(deg)": -222.2697323999198,
        "RAAN(deg)": 349.99537945946287,
        "Satellite Name": "Test1 1548",
        "Satellite Number": 1548,
        "Semi-Major Axis(m)": 6980739.136638005,
        "Time(s)": 110
    },
    {
        "Altitude(m)": 606713.2212760485,
        "Argument of Periapsis(deg)": 0.0012502735095955685,
        "Eccentricity": 0.0,
        "Inclination(deg)": 60.0,
        "Latitude(deg)": 35.23578035151889,
        "Longitude(deg)": 45.5957351462349,
        "Mean Anomaly(deg)": -221.64962625445807,
        "RAAN(deg)": 349.9949594103231,
        "Satellite Name": "Test1 1548",
        "Satellite Number": 1548,
        "Semi-Major Axis(m)": 6980739.136638005,
        "Time(s)": 120
    },
    {
        "Altitude(m)": 606618.8511013413,
        "Argument of Periapsis(deg)": 0.0013544629687285324,
        "Eccentricity": 0.0,
        "Inclination(deg)": 60.0,
        "Latitude(deg)": 34.742383841342416,
        "Longitude(deg)": 46.01452296948132,
        "Mean Anomaly(deg)": -221.0295201089962,
        "RAAN(deg)": 349.99453936118334,
        "Satellite Name": "Test1 1548",
        "Satellite Number": 1548,
        "Semi-Major Axis(m)": 6980739.136638005,
        "Time(s)": 130
    },
    {
        "Altitude(m)": 606525.420420237,
        "Argument of Periapsis(deg)": 0.0014586524278614966,
        "Eccentricity": 0.0,
        "Inclination(deg)": 60.0,
        "Latitude(deg)": 34.24722773929106,
        "Longitude(deg)": 46.427867193714086,
        "Mean Anomaly(deg)": -220.40941396353435,
        "RAAN(deg)": 349.9941193120436,
        "Satellite Name": "Test1 1548",
        "Satellite Number": 1548,
        "Semi-Major Axis(m)": 6980739.136638005,
        "Time(s)": 140
    },
    {
        "Altitude(m)": 606432.9920185042,
        "Argument of Periapsis(deg)": 0.0015628418869944607,
        "Eccentricity": 0.0,
        "Inclination(deg)": 60.0,
        "Latitude(deg)": 33.75036321736696,
        "Longitude(deg)": 46.83591199588341,
        "Mean Anomaly(deg)": -219.78930781807256,
        "RAAN(deg)": 349.9936992629039,
        "Satellite Name": "Test1 1548",
        "Satellite Number": 1548,
        "Semi-Major Axis(m)": 6980739.136638005,
        "Time(s)": 150
    },
    {
        "Altitude(m)": 606341.628397102,
        "Argument of Periapsis(deg)": 0.0016670313461274247,
        "Eccentricity": 0.0,
        "Inclination(deg)": 60.0,
        "Latitude(deg)": 33.25183997740429,
        "Longitude(deg)": 47.23879887517171,
        "Mean Anomaly(deg)": -219.1692016726107,
        "RAAN(deg)": 349.99327921376414,
        "Satellite Name": "Test1 1548",
        "Satellite Number": 1548,
        "Semi-Major Axis(m)": 6980739.136638005,
        "Time(s)": 160
    },
    {
        "Altitude(m)": 606251.3917402383,
        "Argument of Periapsis(deg)": 0.0017712208052603888,
        "Eccentricity": 0.0,
        "Inclination(deg)": 60.0,
        "Latitude(deg)": 32.75170630405515,
        "Longitude(deg)": 47.63666570461196,
        "Mean Anomaly(deg)": -218.54909552714886,
        "RAAN(deg)": 349.9928591646244,
        "Satellite Name": "Test1 1548",
        "Satellite Number": 1548,
        "Semi-Major Axis(m)": 6980739.136638005,
        "Time(s)": 170
    },
    {
        "Altitude(m)": 606162.3438835656,
        "Argument of Periapsis(deg)": 0.001875410264393353,
        "Eccentricity": 0.0,
        "Inclination(deg)": 60.0,
        "Latitude(deg)": 32.250009116111606,
        "Longitude(deg)": 48.02964729758618,
        "Mean Anomaly(deg)": -217.9289893816871,
        "RAAN(deg)": 349.9924391154846,
        "Satellite Name": "Test1 1548",
        "Satellite Number": 1548,
        "Semi-Major Axis(m)": 6980739.136638005,
        "Time(s)": 180
    },
    {
        "Altitude(m)": 606074.5462824643,
        "Argument of Periapsis(deg)": 0.0019795997235263173,
        "Eccentricity": 0.0,
        "Inclination(deg)": 60.0,
        "Latitude(deg)": 31.74679401619268,
        "Longitude(deg)": 48.41787597595347,
        "Mean Anomaly(deg)": -217.3088832362252,
        "RAAN(deg)": 349.99201906634494,
        "Satellite Name": "Test1 1548",
        "Satellite Number": 1548,
        "Semi-Major Axis(m)": 6980739.136638005,
        "Time(s)": 190
    }
]